0 THORAD AGENA D DEB
1 04861U 70025ER  13283.12947341  .00009616  00000-0  22303-2 0  2156
2 04861 099.7251 064.6522 0029362 301.2981 108.2223 14.55016327227895
0 THORAD AGENA D DEB
1 04861U 70025ER  13283.60136157  .00005786  00000-0  13360-2 0  2162
2 04861 099.7265 065.1975 0029421 300.0847 059.7927 14.55010728227960
0 THORAD AGENA D DEB
1 04861U 70025ER  13286.08727946  .00008502  00000-0  19718-2 0  2172
2 04861 099.7245 068.0900 0029550 292.4716 121.7109 14.55060613228321
0 THORAD AGENA D DEB
1 04861U 70025ER  13287.12512159  .00008709  00000-0  20187-2 0  2188
2 04861 099.7245 069.2963 0029607 289.4174 158.1779 14.55073664228473
0 THORAD AGENA D DEB
1 04861U 70025ER  13288.15640656  .00015024  00000-0  34672-2 0  2199
2 04861 099.7247 070.4952 0029651 286.4050 160.3328 14.55097191228629
0 THORAD AGENA D DEB
1 04861U 70025ER  13289.18783719  .00012251  00000-0  28297-2 0  2208
2 04861 099.7249 071.6942 0029719 283.3969 163.3420 14.55117295228773
0 THORAD AGENA D DEB
1 04861U 70025ER  13290.34588257  .00012795  00000-0  29531-2 0  2214
2 04861 099.7251 073.0406 0029764 280.0530 109.6520 14.55140530228946
0 THORAD AGENA D DEB
1 04861U 70025ER  13291.38183961  .00011421  00000-0  26367-2 0  2222
2 04861 099.7254 074.2449 0029788 276.9840 136.5813 14.55161339229094
0 THORAD AGENA D DEB
1 04861U 70025ER  13292.70031215  .00011169  00000-0  25775-2 0  2235
2 04861 099.7259 075.7778 0029828 273.1121 203.5632 14.55189430229283
0 THORAD AGENA D DEB
1 04861U 70025ER  13293.79840191  .00012621  00000-0  29087-2 0  2241
2 04861 099.7260 077.0543 0029974 269.9686 196.0610 14.55209936229445
0 THORAD AGENA D DEB
1 04861U 70025ER  13294.83430448  .00014550  00000-0  33484-2 0  2257
2 04861 099.7261 078.2590 0029981 266.9687 222.8941 14.55232773229593
0 THORAD AGENA D DEB
1 04861U 70025ER  13296.13267689  .00014160  00000-0  32572-2 0  2262
2 04861 099.7259 079.7688 0030026 263.2576 184.8114 14.55259662229789
